ORBCOMM FM27            
1 25481U 98053G   23316.91491589  .00001392  00000+0  53519-3 0  9996
2 25481  45.0038 140.8752 0000511  78.8597 281.2307 14.34842613313950
ORBCOMM FM32            
1 25982U 99065C   23316.74129034  .00001348  00000+0  53329-3 0  9990
2 25982  45.0168 326.5542 0006102 339.4019  20.6581 14.33525167250946
ORBCOMM FM24 [-]        
1 25478U 98053D   23316.82618740  .00001351  00000+0  52028-3 0  9991
2 25478  45.0064 142.8017 0001407 172.0433 188.0437 14.34885189313719
ORBCOMM FM25 [-]        
1 25479U 98053E   23316.65114504  .00001563  00000+0  59452-3 0  9995
2 25479  45.0055 141.8618 0003724 202.8786 157.1896 14.34869221313987
ORBCOMM FM26 [-]        
1 25480U 98053F   23316.80421396  .00001432  00000+0  55365-3 0  9998
2 25480  45.0047 134.5808 0005645 228.6624 131.3738 14.34424351313958
ORBCOMM FM28 [-]        
1 25482U 98053H   23316.75068277  .00001860  00000+0  69153-3 0  9994
2 25482  45.0054  80.7525 0004690 246.4369 113.5985 14.35334282314590
ORBCOMM FM30 [-]        
1 25980U 99065A   23316.71374841  .00001640  00000+0  62508-3 0  9997
2 25980  45.0326 320.3622 0007464 320.7312  39.2993 14.34557646250730
ORBCOMM FM31 [-]        
1 25981U 99065B   23317.02903553  .00001219  00000+0  47739-3 0  9992
2 25981  45.0245 312.7126 0004214 331.7108  28.3510 14.34581738251307
